0 COSMOS 886 DEB
1 09964U 76126BE  13281.81834220  .00004300  00000-0  22970-2 0  3750
2 09964 065.8038 078.3794 0858284 153.6728 323.4891 13.02185323720305
0 COSMOS 886 DEB
1 09964U 76126BE  13285.81863087  .00003591  00000-0  19277-2 0  3776
2 09964 065.8044 069.5354 0857787 151.9328 356.5967 13.02223945720821
0 COSMOS 886 DEB
1 09964U 76126BE  13286.81896557  .00003214  00000-0  17301-2 0  3784
2 09964 065.8045 067.3235 0857657 151.4990 006.1840 13.02231599720958
0 COSMOS 886 DEB
1 09964U 76126BE  13288.49018057  .00004414  00000-0  23624-2 0  3790
2 09964 065.8047 063.6286 0857445 150.7714 280.9345 13.02244175721177
0 COSMOS 886 DEB
1 09964U 76126BE  13289.49452596  .00003961  00000-0  21249-2 0  3800
2 09964 065.8048 061.4079 0857305 150.3364 309.3967 13.02250490721304
0 COSMOS 886 DEB
1 09964U 76126BE  13290.62635624  .00003578  00000-0  18831-2 0  3821
2 09964 065.8039 058.9072 0857072 149.8354 215.5474 13.02257488721452
0 COSMOS 886 DEB
1 09964U 76126BE  13290.72633171  .00004990  00000-0  26683-2 0  3819
2 09964 065.8051 058.6841 0857126 149.7928 324.2546 13.02257292721465
0 COSMOS 886 DEB
1 09964U 76126BE  13292.48799786  .00004774  00000-0  25554-2 0  3826
2 09964 065.8059 054.7902 0856980 149.0200 303.2250 13.02271670721691
0 COSMOS 886 DEB
1 09964U 76126BE  13293.80835698  .00005241  00000-0  28015-2 0  3832
2 09964 065.8064 051.8700 0856896 148.4472 013.3355 13.02282671721868
0 COSMOS 886 DEB
1 09964U 76126BE  13295.48609167  .00005047  00000-0  27019-2 0  3846
2 09964 065.8068 048.1609 0856600 147.7185 318.9722 13.02299693722084
